COMMENT,ORIGINATOR,NORAD_CAT_ID,OBJECT_NAME,OBJECT_TYPE,CLASSIFICATION_TYPE,INTLDES,EPOCH,EPOCH_MICROSECONDS,MEAN_MOTION,ECCENTRICITY,INCLINATION,RA_OF_ASC_NODE,ARG_OF_PERICENTER,MEAN_ANOMALY,EPHEMERIS_TYPE,ELEMENT_SET_NO,REV_AT_EPOCH,BSTAR,MEAN_MOTION_DOT,MEAN_MOTION_DDOT,FILE,TLE_LINE0,TLE_LINE1,TLE_LINE2,OBJECT_ID,OBJECT_NUMBER,SEMIMAJOR_AXIS,PERIOD,APOGEE,PERIGEE,DECAYED
"GENERATED VIA SPACETRACK.ORG API","18 SPCS","55100","SPACEBEE-158","PAYLOAD","U","23001CV","2023-10-27 02:37:07","523040","15.25800768","0.0012627","97.4621","359.4136","259.1233","100.8584","0","999","4517","0.0012363","0.00031699","0","4054820","0 SPACEBEE-158","1 55100U 23001CV  23300.10911485  .00031699  00000-0  12363-2 0  9999","2 55100  97.4621 359.4136 0012627 259.1233 100.8584 15.25800768 45171","2023-001CV","55100","6866.519","94.377","497.054","479.714","0"
"GENERATED VIA SPACETRACK.ORG API","18 SPCS","55100","SPACEBEE-158","PAYLOAD","U","23001CV","2023-10-27 02:37:07","523040","15.25800768","0.0012627","97.4621","359.4136","259.1233","100.8584","0","999","4517","0.0012363","0.00031699","0","4055819","0 SPACEBEE-158","1 55100U 23001CV  23300.10911485  .00031699  00000-0  12363-2 0  9999","2 55100  97.4621 359.4136 0012627 259.1233 100.8584 15.25800768 45171","2023-001CV","55100","6866.519","94.377","497.054","479.714","0"
"GENERATED VIA SPACETRACK.ORG API","18 SPCS","55100","SPACEBEE-158","PAYLOAD","U","23001CV","2023-10-27 21:30:21","115008","15.25853709","0.001259","97.4618","0.199","255.9551","104.0288","0","999","4529","0.0012266","0.00031498","0","4056385","0 SPACEBEE-158","1 55100U 23001CV  23300.89607772  .00031498  00000-0  12266-2 0  9995","2 55100  97.4618   0.1990 0012590 255.9551 104.0288 15.25853709 45294","2023-001CV","55100","6866.360","94.373","496.870","479.580","0"
"GENERATED VIA SPACETRACK.ORG API","18 SPCS","55100","SPACEBEE-158","PAYLOAD","U","23001CV","2023-10-28 10:05:48","937920","15.25883286","0.0012637","97.4614","0.7222","253.8043","106.1805","0","999","4537","0.0010422","0.00026759","0","4057306","0 SPACEBEE-158","1 55100U 23001CV  23301.42070530  .00026759  00000-0  10422-2 0  9997","2 55100  97.4614   0.7222 0012637 253.8043 106.1805 15.25883286 45379","2023-001CV","55100","6866.271","94.372","496.813","479.459","0"
"GENERATED VIA SPACETRACK.ORG API","18 SPCS","55100","SPACEBEE-158","PAYLOAD","U","23001CV","2023-10-28 10:05:48","937920","15.25883286","0.0012637","97.4614","0.7222","253.8043","106.1805","0","999","4537","0.0010422","0.00026759","0","4057688","0 SPACEBEE-158","1 55100U 23001CV  23301.42070530  .00026759  00000-0  10422-2 0  9997","2 55100  97.4614   0.7222 0012637 253.8043 106.1805 15.25883286 45379","2023-001CV","55100","6866.271","94.372","496.813","479.459","0"
"GENERATED VIA SPACETRACK.ORG API","18 SPCS","55100","SPACEBEE-158","PAYLOAD","U","23001CV","2023-10-28 16:23:32","502048","15.25903649","0.0012639","97.4612","0.9839","252.7739","107.2116","0","999","4541","0.001229","0.00031608","0","4058258","0 SPACEBEE-158","1 55100U 23001CV  23301.68301507  .00031608  00000-0  12290-2 0  9990","2 55100  97.4612   0.9839 0012639 252.7739 107.2116 15.25903649 45413","2023-001CV","55100","6866.210","94.370","496.753","479.397","0"
"GENERATED VIA SPACETRACK.ORG API","18 SPCS","55100","SPACEBEE-158","PAYLOAD","U","23001CV","2023-10-29 03:24:32","967072","15.2594121","0.0012673","97.4609","1.442","251.108","108.8784","0","999","4548","0.0014919","0.00038464","0","4058610","0 SPACEBEE-158","1 55100U 23001CV  23302.14204823  .00038464  00000-0  14919-2 0  9992","2 55100  97.4609   1.4420 0012673 251.1080 108.8784 15.25941210 45482","2023-001CV","55100","6866.098","94.368","496.664","479.261","0"
"GENERATED VIA SPACETRACK.ORG API","18 SPCS","55100","SPACEBEE-158","PAYLOAD","U","23001CV","2023-10-29 14:25:32","568096","15.25974424","0.001271","97.4605","1.8999","249.3504","110.6372","0","999","4555","0.0014109","0.00036399","0","4059417","0 SPACEBEE-158","1 55100U 23001CV  23302.60107139  .00036399  00000-0  14109-2 0  9991","2 55100  97.4605   1.8999 0012710 249.3504 110.6372 15.25974424 45550","2023-001CV","55100","6865.998","94.366","496.590","479.136","0"
"GENERATED VIA SPACETRACK.ORG API","18 SPCS","55100","SPACEBEE-158","PAYLOAD","U","23001CV","2023-10-29 20:43:14","753280","15.25994775","0.0012724","97.4604","2.1616","248.3778","111.6105","0","999","4559","0.0014494","0.00037422","0","4059994","0 SPACEBEE-158","1 55100U 23001CV  23302.86336520  .00037422  00000-0  14494-2 0  9992","2 55100  97.4604   2.1616 0012724 248.3778 111.6105 15.25994775 45596","2023-001CV","55100","6865.937","94.365","496.538","479.066","0"
"GENERATED VIA SPACETRACK.ORG API","18 SPCS","55100","SPACEBEE-158","PAYLOAD","U","23001CV","2023-10-30 21:54:00","922752","15.26066487","0.0012719","97.4599","3.2085","244.4587","115.5336","0","999","4575","0.0013667","0.00035349","0","4061878","0 SPACEBEE-158","1 55100U 23001CV  23303.91251068  .00035349  00000-0  13667-2 0  9999","2 55100  97.4599   3.2085 0012719 244.4587 115.5336 15.26066487 45758","2023-001CV","55100","6865.722","94.360","496.319","478.854","0"
"GENERATED VIA SPACETRACK.ORG API","18 SPCS","55100","SPACEBEE-158","PAYLOAD","U","23001CV","2023-10-31 04:11:41","812800","15.26081724","0.0012735","97.4601","3.4705","243.6614","116.3317","0","999","4579","0.0012024","0.00031088","0","4062194","0 SPACEBEE-158","1 55100U 23001CV  23304.17478950  .00031088  00000-0  12024-2 0  9991","2 55100  97.4601   3.4705 0012735 243.6614 116.3317 15.26081724 45796","2023-001CV","55100","6865.676","94.359","496.285","478.798","0"
"GENERATED VIA SPACETRACK.ORG API","18 SPCS","55100","SPACEBEE-158","PAYLOAD","U","23001CV","2023-10-31 04:11:41","812800","15.26081724","0.0012735","97.4601","3.4705","243.6614","116.3317","0","999","4579","0.0012024","0.00031088","0","4063043","0 SPACEBEE-158","1 55100U 23001CV  23304.17478950  .00031088  00000-0  12024-2 0  9991","2 55100  97.4601   3.4705 0012735 243.6614 116.3317 15.26081724 45796","2023-001CV","55100","6865.676","94.359","496.285","478.798","0"
"GENERATED VIA SPACETRACK.ORG API","18 SPCS","55100","SPACEBEE-158","PAYLOAD","U","23001CV","2023-10-31 16:47:02","929344","15.26113112","0.0012708","97.4603","3.9943","241.6682","118.3275","0","999","4587","0.0011455","0.00029635","0","4063660","0 SPACEBEE-158","1 55100U 23001CV  23304.69933946  .00029635  00000-0  11455-2 0  9991","2 55100  97.4603   3.9943 0012708 241.6682 118.3275 15.26113112 45871","2023-001CV","55100","6865.582","94.357","496.172","478.722","0"
"GENERATED VIA SPACETRACK.ORG API","18 SPCS","55100","SPACEBEE-158","PAYLOAD","U","23001CV","2023-11-01 10:05:37","846752","15.26158482","0.0012727","97.4598","4.7139","238.8573","121.1418","0","999","4598","0.0011843","0.00030688","0","4064511","0 SPACEBEE-158","1 55100U 23001CV  23305.42057693  .00030688  00000-0  11843-2 0  9990","2 55100  97.4598   4.7139 0012727 238.8573 121.1418 15.26158482 45980","2023-001CV","55100","6865.446","94.355","496.049","478.573","0"
"GENERATED VIA SPACETRACK.ORG API","18 SPCS","55100","SPACEBEE-158","PAYLOAD","U","23001CV","2023-11-01 10:05:37","846752","15.26158482","0.0012727","97.4598","4.7139","238.8573","121.1418","0","999","4598","0.0011843","0.00030688","0","4064888","0 SPACEBEE-158","1 55100U 23001CV  23305.42057693  .00030688  00000-0  11843-2 0  9990","2 55100  97.4598   4.7139 0012727 238.8573 121.1418 15.26158482 45980","2023-001CV","55100","6865.446","94.355","496.049","478.573","0"
"GENERATED VIA SPACETRACK.ORG API","18 SPCS","55100","SPACEBEE-158","PAYLOAD","U","23001CV","2023-11-01 17:57:42","239520","15.26176107","0.0012765","97.4596","5.0409","237.5944","122.406","0","999","4603","0.0010577","0.00027402","0","4065398","0 SPACEBEE-158","1 55100U 23001CV  23305.74840555  .00027402  00000-0  10577-2 0  9995","2 55100  97.4596   5.0409 0012765 237.5944 122.4060 15.26176107 46030","2023-001CV","55100","6865.393","94.353","496.022","478.494","0"
"GENERATED VIA SPACETRACK.ORG API","18 SPCS","55100","SPACEBEE-158","PAYLOAD","U","23001CV","2023-11-02 03:24:10","922112","15.26204311","0.0012815","97.4593","5.4333","236.178","123.8239","0","999","4609","0.0011963","0.00031045","0","4066590","0 SPACEBEE-158","1 55100U 23001CV  23306.14179308  .00031045  00000-0  11963-2 0  9999","2 55100  97.4593   5.4333 0012815 236.1780 123.8239 15.26204311 46094","2023-001CV","55100","6865.308","94.352","495.971","478.376","0"
"GENERATED VIA SPACETRACK.ORG API","18 SPCS","55100","SPACEBEE-158","PAYLOAD","U","23001CV","2023-11-02 17:33:52","897536","15.26244488","0.0012857","97.4592","6.0221","234.0668","125.9378","0","999","4618","0.0012329","0.0003204","0","4066926","0 SPACEBEE-158","1 55100U 23001CV  23306.73186224  .00032040  00000-0  12329-2 0  9992","2 55100  97.4592   6.0221 0012857 234.0668 125.9378 15.26244488 46180","2023-001CV","55100","6865.188","94.349","495.880","478.226","0"
"GENERATED VIA SPACETRACK.ORG API","18 SPCS","55100","SPACEBEE-158","PAYLOAD","U","23001CV","2023-11-02 22:17:06","612864","15.26255096","0.0012868","97.4591","6.2184","233.513","126.4924","0","999","4621","0.0011743","0.00030518","0","4067000","0 SPACEBEE-158","1 55100U 23001CV  23306.92854876  .00030518  00000-0  11743-2 0  9995","2 55100  97.4591   6.2184 0012868 233.5130 126.4924 15.26255096 46213","2023-001CV","55100","6865.156","94.349","495.855","478.187","0"
"GENERATED VIA SPACETRACK.ORG API","18 SPCS","55100","SPACEBEE-158","PAYLOAD","U","23001CV","2023-11-03 03:00:20","165760","15.26269999","0.0012875","97.4591","6.4149","232.9039","127.1023","0","999","4624","0.00122","0.00031728","0","4068165","0 SPACEBEE-158","1 55100U 23001CV  23307.12523340  .00031728  00000-0  12200-2 0  9990","2 55100  97.4591   6.4149 0012875 232.9039 127.1023 15.26269999 46243","2023-001CV","55100","6865.112","94.348","495.815","478.138","0"
